First Name,Last Name,Company Name,Address,City,State,Phone No,Email,Web
Rebbecca,Didio,"Brandt, Jonathan F Esq",171 E 24th St,Leith,TAS,03-8174-9123,rebbecca.didio@didio.com.au,http://www.brandtjonathanfesq.com.au
Stevie,Hallo,Landrum Temporary Services,22222 Acoma St,Proston,QLD,07-9997-3366,stevie.hallo@hotmail.com,http://www.landrumtemporaryservices.com.au
Mariko,Stayer,"Inabinet, Macre Esq",534 Schoenborn St #51,Hamel,WA,08-5558-9019,mariko_stayer@hotmail.com,http://www.inabinetmacreesq.com.au
Gerardo,Woodka,Morris Downing & Sherred,69206 Jackson Ave,Talmalmo,NSW,02-6044-4682,gerardo_woodka@hotmail.com,http://www.morrisdowningsherred.com.au
Mayra,Bena,"Buelt, David L Esq",808 Glen Cove Ave,Lane Cove,NSW,02-1455-6085,mayra.bena@gmail.com,http://www.bueltdavidlesq.com.au
Idella,Scotland,Artesian Ice & Cold Storage Co,373 Lafayette St,Cartmeticup,WA,08-7868-1355,idella@hotmail.com,http://www.artesianicecoldstorageco.com.au
Sherill,Klar,Midway Hotel,87 Sylvan Ave,Nyamup,WA,08-6522-8931,sklar@hotmail.com,http://www.midwayhotel.com.au
Ena,Desjardiws,"Selsor, Robert J Esq",60562 Ky Rt 321,Bendick Murrell,NSW,02-5226-9402,ena_desjardiws@desjardiws.com.au,http://www.selsorrobertjesq.com.au
Vince,Siena,Vincent J Petti & Co,70 S 18th Pl,Purrawunda,QLD,07-3184-9989,vince_siena@yahoo.com,http://www.vincentjpettico.com.au
Theron,Jarding,"Prentiss, Paul F Esq",8839 Ventura Blvd,Blanchetown,SA,08-6890-4661,tjarding@hotmail.com,http://www.prentisspaulfesq.com.au
Amira,Chudej,Public Works Department,3684 N Wacker Dr,Rockside,QLD,07-8135-3271,amira.chudej@chudej.net.au,http://www.publicworksdepartment.com.au
Marica,Tarbor,Prudential Lighting Corp,68828 S 32nd St #6,Rosegarland,TAS,03-1174-6817,marica.tarbor@hotmail.com,http://www.prudentiallightingcorp.com.au
Shawna,Albrough,"Wood, J Scott Esq",43157 Cypress St,Ringwood,QLD,07-7977-6039,shawna.albrough@albrough.com.au,http://www.woodjscottesq.com.au
Paulina,Maker,Swanson Peterson Fnrl Home Inc,6 S Hanover Ave,Maylands,WA,08-8344-8929,paulina_maker@maker.net.au,http://www.swansonpetersonfnrlhomeinc.com.au
Rose,Jebb,Old Cider Mill Grove,27916 Tarrytown Rd,Wooloowin,QLD,07-4941-9471,rose@jebb.net.au,http://www.oldcidermillgrove.com.au
Reita,Tabar,Cooper Myers Y Co,79620 Timber Dr,Arthurville,NSW,02-3518-7078,rtabar@hotmail.com,http://www.coopermyersyco.com.au
Maybelle,Bewley,Angelo International,387 Airway Cir #62,Mapleton,QLD,07-9387-7293,mbewley@yahoo.com,http://www.angelointernational.com.au
Camellia,Pylant,"Blackley, William J Pa",570 W Pine St,Tuggerawong,NSW,02-5171-4345,camellia_pylant@gmail.com,http://www.blackleywilliamjpa.com.au
Roy,Nybo,Phoenix Phototype,823 Fishers Ln,Red Hill,ACT,02-5311-7778,rnybo@nybo.net.au,http://www.phoenixphototype.com.au
Christene,Cisney,Danform Shoe Stores,21058 Massillon Rd,Keilor Downs,VIC,03-3630-2467,christene@hotmail.com,http://www.danformshoestores.com.au
Miles,Feldner,Antietam Cable Television,28465 Downey Ave #4238,Barringun,QLD,07-8561-5894,miles@hotmail.com,http://www.antietamcabletelevision.com.au
Julio,Mikel,Lombardi Bros Inc,2803 N Catalina Ave,Pilliga,NSW,02-6995-9902,julio.mikel@mikel.net.au,http://www.lombardibrosinc.com.au
Aide,Ghera,Nathaniel Electronics,22 Livingston Ave,Rhodes,NSW,02-3738-7508,aide.ghera@ghera.com.au,http://www.nathanielelectronics.com.au
Noelia,Brackett,"Rodriguez, Joseph A Esq",403 Conn Valley Rd,Castletown,WA,08-3773-3770,noelia@brackett.net.au,http://www.rodriguezjosephaesq.com.au
Lenora,Delacruz,"Stilling, William J Esq",5400 Market St,Turill,NSW,02-7862-5151,lenora@delacruz.net.au,http://www.stillingwilliamjesq.com.au
